<?xml version="1.0" encoding="UTF-8"?>
<kml xmlns="http://www.opengis.net/kml/2.2">
  <Document>
    <name>Sample Polygons</name>
    <Placemark>
      <name>Survey Zone Alpha</name>
      <description>Agricultural survey plot 1</description>
      <Polygon>
        <outerBoundaryIs>
          <LinearRing>
            <coordinates>
              77.5946,12.9716,0
              77.5976,12.9716,0
              77.5976,12.9746,0
              77.5946,12.9746,0
              77.5946,12.9716,0
            </coordinates>
          </LinearRing>
        </outerBoundaryIs>
      </Polygon>
    </Placemark>
  </Document>
</kml>
